ONEWEB-0593             
1 54659U 22166T   24070.45970036  .00000008  00000+0 -12342-4 0  9997
2 54659  87.9240  48.9212 0002163  89.5342 270.6040 13.21823636 62068
ONEWEB-0594             
1 54660U 22166U   24070.47863248  .00000045  00000+0  78452-4 0  9991
2 54660  87.9244  48.9138 0001950  79.2411 280.8942 13.21826932 62085
ONEWEB-0595             
1 54661U 22166V   24070.45655242  .00000035  00000+0  52049-4 0  9996
2 54661  87.9241  48.9080 0001653  85.2914 274.8409 13.21826787 62050
ONEWEB-0596             
1 54662U 22166W   24070.42975012  .00000115  00000+0  24612-3 0  9997
2 54662  87.9244  48.9169 0002117  95.4418 264.6958 13.21825881 62050
ONEWEB-0597             
1 54663U 22166X   24070.48650488  .00000060  00000+0  11262-3 0  9997
2 54663  87.9244  48.9069 0002340  86.8847 273.2555 13.21826893 62062
ONEWEB-0600             
1 54664U 22166Y   24070.46915591 -.00000017  00000+0 -73388-4 0  9997
2 54664  87.9238  48.9565 0002208  84.4102 275.7284 13.21827990 62030
ONEWEB-0601             
1 54665U 22166Z   24070.46127366  .00000041  00000+0  66840-4 0  9993
2 54665  87.9245  48.9148 0002444  94.5662 265.5751 13.21828267 62226
ONEWEB-0602             
1 54666U 22166AA  24070.50228794  .00000110  00000+0  23583-3 0  9999
2 54666  87.9246  48.9115 0002306  87.5784 272.5614 13.21827069 62074
